[{"OBJECT_NAME":"STARLINK-5365","OBJECT_ID":"2023-015BB","EPOCH":"2026-03-09T22:00:01.999584","MEAN_MOTION":15.09714708,"ECCENTRICITY":0.00017096,"INCLINATION":42.9995,"RA_OF_ASC_NODE":337.1207,"ARG_OF_PERICENTER":278.4916,"MEAN_ANOMALY":143.8109,"EPHEMERIS_TYPE":0,"CLASSIFICATION_TYPE":"U","NORAD_CAT_ID":55498,"ELEMENT_SET_NO":999,"REV_AT_EPOCH":577,"BSTAR":0.00082675365,"MEAN_MOTION_DOT":0.00013367,"MEAN_MOTION_DDOT":0},{"OBJECT_NAME":"COSMOS 252 DEB","OBJECT_ID":"1968-097CF","EPOCH":"2026-03-09T12:03:06.881472","MEAN_MOTION":13.89760968,"ECCENTRICITY":0.06306282,"INCLINATION":62.7318,"RA_OF_ASC_NODE":125.8805,"ARG_OF_PERICENTER":159.9223,"MEAN_ANOMALY":202.7883,"EPHEMERIS_TYPE":0,"CLASSIFICATION_TYPE":"U","NORAD_CAT_ID":4421,"ELEMENT_SET_NO":999,"REV_AT_EPOCH":54558,"BSTAR":0.0010172608,"MEAN_MOTION_DOT":6.493e-5,"MEAN_MOTION_DDOT":0}]
